{
  "type": "FeatureCollection",
  "features": [
    {
      "type": "Feature",
      "properties": {
        "norad_id": 54741,
        "name": "GALAXY 35 (G-35)",
        "group": "intelsat",
        "lat": -0.006385073081514902,
        "lon": -144.17535743338948,
        "alt_km": 35780.90667134812,
        "timestamp": "2025-12-20T14:38:01.626652+00:00",
        "meta_object_name": "GALAXY 35 (G-35)",
        "meta_object_id": "2022-170A",
        "meta_epoch": "2025-12-20T04:13:38.642880",
        "meta_mean_motion": 1.00272292,
        "meta_eccentricity": 0.00021453,
        "meta_inclination": 0.015,
        "meta_ra_of_asc_node": 47.9126,
        "meta_arg_of_pericenter": 224.1788,
        "meta_mean_anomaly": 147.2393,
        "meta_ephemeris_type": 0,
        "meta_classification_type": "U",
        "meta_norad_cat_id": 54741,
        "meta_element_set_no": 999,
        "meta_rev_at_epoch": 1109,
        "meta_bstar": 0,
        "meta_mean_motion_dot": -1.38e-06,
        "meta_mean_motion_ddot": 0,
        "tle_line1": "1 54741U 22170A   25354.17614170 -.00000138  00000+0  00000+0 0  9990",
        "tle_line2": "2 54741   0.0150  47.9126 0002145 224.1788 147.2393  1.00272292 11097"
      },
      "geometry": {
        "type": "Point",
        "coordinates": [
          -144.17535743338948,
          -0.006385073081514902
        ]
      }
    },
    {
      "type": "Feature",
      "properties": {
        "norad_id": 54742,
        "name": "GALAXY 36 (G-36)",
        "group": "intelsat",
        "lat": -0.028024684942070652,
        "lon": -140.07895009420716,
        "alt_km": 35787.81876607748,
        "timestamp": "2025-12-20T14:38:01.626664+00:00",
        "meta_object_name": "GALAXY 36 (G-36)",
        "meta_object_id": "2022-170B",
        "meta_epoch": "2025-12-19T11:26:17.746656",
        "meta_mean_motion": 1.00269448,
        "meta_eccentricity": 3.277e-05,
        "meta_inclination": 0.0154,
        "meta_ra_of_asc_node": 1.2484,
        "meta_arg_of_pericenter": 356.3227,
        "meta_mean_anomaly": 173.3219,
        "meta_ephemeris_type": 0,
        "meta_classification_type": "U",
        "meta_norad_cat_id": 54742,
        "meta_element_set_no": 999,
        "meta_rev_at_epoch": 1097,
        "meta_bstar": 0,
        "meta_mean_motion_dot": 0,
        "meta_mean_motion_ddot": 0,
        "tle_line1": "1 54742U 22170B   25353.47659429  .00000000  00000+0  00000+0 0  9996",
        "tle_line2": "2 54742   0.0154   1.2484 0000327 356.3227 173.3219  1.00269448 10970"
      },
      "geometry": {
        "type": "Point",
        "coordinates": [
          -140.07895009420716,
          -0.028024684942070652
        ]
      }
    },
    {
      "type": "Feature",
      "properties": {
        "norad_id": 57493,
        "name": "GALAXY 37 (G-37)",
        "group": "intelsat",
        "lat": -0.004125311623754589,
        "lon": -178.08836335344367,
        "alt_km": 35786.31545030813,
        "timestamp": "2025-12-20T14:38:01.626675+00:00",
        "meta_object_name": "GALAXY 37 (G-37)",
        "meta_object_id": "2023-112A",
        "meta_epoch": "2025-12-20T04:45:38.640960",
        "meta_mean_motion": 1.00270819,
        "meta_eccentricity": 0.00019203,
        "meta_inclination": 0.0153,
        "meta_ra_of_asc_node": 356.3193,
        "meta_arg_of_pericenter": 275.5687,
        "meta_mean_anomaly": 121.5554,
        "meta_ephemeris_type": 0,
        "meta_classification_type": "U",
        "meta_norad_cat_id": 57493,
        "meta_element_set_no": 999,
        "meta_rev_at_epoch": 874,
        "meta_bstar": 0,
        "meta_mean_motion_dot": 7.2e-07,
        "meta_mean_motion_ddot": 0,
        "tle_line1": "1 57493U 23112A   25354.19836390  .00000072  00000+0  00000+0 0  9992",
        "tle_line2": "2 57493   0.0153 356.3193 0001920 275.5687 121.5554  1.00270819  8741"
      },
      "geometry": {
        "type": "Point",
        "coordinates": [
          -178.08836335344367,
          -0.004125311623754589
        ]
      }
    }
  ]
}